OBJECT_NAME,OBJECT_ID,EPOCH,MEAN_MOTION,ECCENTRICITY,INCLINATION,RA_OF_ASC_NODE,ARG_OF_PERICENTER,MEAN_ANOMALY,EPHEMERIS_TYPE,CLASSIFICATION_TYPE,NORAD_CAT_ID,ELEMENT_SET_NO,REV_AT_EPOCH,BSTAR,MEAN_MOTION_DOT,MEAN_MOTION_DDOT
GRUS-1E,2021-022D,2026-03-09T12:23:25.554336,14.99578755,.0012887,97.5572,315.9955,315.7380,44.2812,0,U,47935,999,27101,.18239E-3,.2189E-4,0
STARLINK-3043,2021-082BB,2026-03-09T12:19:03.739872,14.98311271,.0001755,69.9990,254.8850,265.2831,94.8127,0,U,49179,999,24693,.23207E-3,.2676E-4,0
